[{"OBJECT_NAME":"STARLINK-34987","OBJECT_ID":"2025-179W","EPOCH":"2026-03-09T16:10:18.932736","MEAN_MOTION":15.05651677,"ECCENTRICITY":2.791e-5,"INCLINATION":97.6034,"RA_OF_ASC_NODE":112.9118,"ARG_OF_PERICENTER":115.2852,"MEAN_ANOMALY":244.8404,"EPHEMERIS_TYPE":0,"CLASSIFICATION_TYPE":"U","NORAD_CAT_ID":65255,"ELEMENT_SET_NO":999,"REV_AT_EPOCH":3180,"BSTAR":0.00024609509,"MEAN_MOTION_DOT":3.492e-5,"MEAN_MOTION_DDOT":0},{"OBJECT_NAME":"CZ-6A DEB","OBJECT_ID":"2024-140YT","EPOCH":"2026-03-09T15:08:50.355168","MEAN_MOTION":14.80324244,"ECCENTRICITY":0.0130576,"INCLINATION":89.1165,"RA_OF_ASC_NODE":289.1796,"ARG_OF_PERICENTER":182.674,"MEAN_ANOMALY":177.3803,"EPHEMERIS_TYPE":0,"CLASSIFICATION_TYPE":"U","NORAD_CAT_ID":61426,"ELEMENT_SET_NO":999,"REV_AT_EPOCH":8306,"BSTAR":0.0013152,"MEAN_MOTION_DOT":0.00011629,"MEAN_MOTION_DDOT":0}]
